ONEWEB-0588             
1 55153U 23004P   24282.76253771  .00000178  00000+0  41880-3 0  9993
2 55153  87.9053  98.1939 0001670  70.7601 289.3712 13.18687790 88454
ONEWEB-0598             
1 55154U 23004Q   24282.91124410  .00000599  00000+0  16552-2 0  9992
2 55154  87.8929 143.8516 0002246  71.0594 289.0777 13.11419715 85122
ONEWEB-0599             
1 55155U 23004R   24282.87882915  .00000226  00000+0  54953-3 0  9994
2 55155  87.9100 128.6312 0001849  86.1853 273.9490 13.17649588 86329
ONEWEB-0617             
1 55158U 23004U   24282.89428610 -.00000083  00000+0 -26929-3 0  9992
2 55158  87.8930 143.8511 0001442  64.4406 295.6871 13.11419705 85080
ONEWEB-0618             
1 55159U 23004V   24282.85077776  .00001452  00000+0  58594-3 0  9994
2 55159  86.9074  52.9826 0011054 275.8452  84.1480 14.27290252 91556
ONEWEB-0619             
1 55160U 23004W   24282.87714602  .00000115  00000+0  26307-3 0  9996
2 55160  87.9095 128.6119 0001252  96.7528 263.3746 13.17651229 86431
